NORAD_CAT_ID,OBJECT_NAME,OBJECT_TYPE,EPOCH,MEAN_MOTION,ECCENTRICITY,INCLINATION,RA_OF_ASC_NODE,ARG_OF_PERICENTER,MEAN_ANOMALY,BSTAR,MEAN_MOTION_DOT,MEAN_MOTION_DDOT,TLE_LINE0,TLE_LINE1,TLE_LINE2,SEMIMAJOR_AXIS,PERIOD,APOGEE,PERIGEE,DECAYED
53577.0,STARLINK-4553,PAYLOAD,2023-10-17 22:47:33,15.08851841,0.000146,53.2171,16.2473,82.1759,277.9399,0.00030269,4.534e-05,0.0,0 STARLINK-4553,1 53577U 22101BC  23290.94968920  .00004534  00000-0  30269-3 0  9995,2 53577  53.2171  16.2473 0001460  82.1759 277.9399 15.08851841 65361,6917.844,95.437,540.719,538.699,0.0
53577.0,STARLINK-4553,PAYLOAD,2023-10-18 11:30:38,15.08840278,0.000161,53.2171,13.8693,89.5999,270.5178,2.1915e-05,6.1e-07,0.0,0 STARLINK-4553,1 53577U 22101BC  23291.47961241  .00000061  00000-0  21915-4 0  9993,2 53577  53.2171  13.8693 0001610  89.5999 270.5178 15.08840278 64626,6917.88,95.438,540.858,538.631,0.0
53577.0,STARLINK-4553,PAYLOAD,2023-10-18 14:41:24,15.08849317,0.0001404,53.2163,13.2756,84.5441,275.5711,0.00023892,3.517e-05,0.0,0 STARLINK-4553,1 53577U 22101BC  23291.61208918  .00003517  00000-0  23892-3 0  9998,2 53577  53.2163  13.2756 0001404  84.5441 275.5711 15.08849317 65463,6917.852,95.437,540.688,538.746,0.0
53577.0,STARLINK-4553,PAYLOAD,2023-10-19 11:21:25,15.088551,0.0001513,53.2164,9.4097,94.7637,265.3528,0.00043325,6.617e-05,0.0,0 STARLINK-4553,1 53577U 22101BC  23292.47320680  .00006617  00000-0  43325-3 0  9991,2 53577  53.2164   9.4097 0001513  94.7637 265.3528 15.08855100 64773,6917.834,95.437,540.746,538.653,0.0
53577.0,STARLINK-4553,PAYLOAD,2023-10-19 22:29:07,15.08850254,0.0001762,53.2181,7.3274,71.3588,288.7596,0.00032707,4.923e-05,0.0,0 STARLINK-4553,1 53577U 22101BC  23292.93688859  .00004923  00000-0  32707-3 0  9997,2 53577  53.2181   7.3274 0001762  71.3588 288.7596 15.08850254 64845,6917.849,95.437,540.933,538.495,0.0
53577.0,STARLINK-4553,PAYLOAD,2023-10-20 11:12:12,15.08843718,0.0001585,53.2162,4.9492,70.0574,290.0589,9.0087e-05,1.146e-05,0.0,0 STARLINK-4553,1 53577U 22101BC  23293.46680988  .00001146  00000-0  90087-4 0  9991,2 53577  53.2162   4.9492 0001585  70.0574 290.0589 15.08843718 64927,6917.869,95.437,540.831,538.638,0.0
53577.0,STARLINK-4553,PAYLOAD,2023-10-21 11:02:59,15.08843125,0.0001518,53.2167,0.4908,73.1392,286.9766,0.0001462,2.04e-05,0.0,0 STARLINK-4553,1 53577U 22101BC  23294.46041253  .00002040  00000-0  14620-3 0  9990,2 53577  53.2167   0.4908 0001518  73.1392 286.9766 15.08843125 65073,6917.871,95.437,540.786,538.686,0.0
53577.0,STARLINK-4553,PAYLOAD,2023-10-22 10:53:46,15.08842945,0.0001331,53.2167,356.0251,92.2682,267.8462,0.00016073,2.271e-05,0.0,0 STARLINK-4553,1 53577U 22101BC  23295.45401557  .00002271  00000-0  16073-3 0  9997,2 53577  53.2167 356.0251 0001331  92.2682 267.8462 15.08842945 65228,6917.871,95.437,540.657,538.816,0.0
53577.0,STARLINK-4553,PAYLOAD,2023-10-23 10:44:34,15.088387,0.0001423,53.217,351.5651,92.8075,267.308,9.524e-05,1.228e-05,0.0,0 STARLINK-4553,1 53577U 22101BC  23296.44761976  .00001228  00000-0  95240-4 0  9996,2 53577  53.2170 351.5651 0001423  92.8075 267.3080 15.08838700 65371,6917.884,95.438,540.734,538.765,0.0
53577.0,STARLINK-4553,PAYLOAD,2023-10-23 20:16:53,15.08838973,0.0001457,53.2175,349.7817,92.9543,267.1616,6.4241e-05,7.35e-06,0.0,0 STARLINK-4553,1 53577U 22101BC  23296.84506031  .00000735  00000-0  64241-4 0  9998,2 53577  53.2175 349.7817 0001457  92.9543 267.1616 15.08838973 66250,6917.884,95.438,540.756,538.741,0.0
53577.0,STARLINK-4553,PAYLOAD,2023-10-24 10:35:21,15.08840301,0.000149,53.2175,347.1074,96.9932,263.1229,0.00012868,1.761e-05,0.0,0 STARLINK-4553,1 53577U 22101BC  23297.44122247  .00001761  00000-0  12868-3 0  9995,2 53577  53.2175 347.1074 0001490  96.9932 263.1229 15.08840301 66344,6917.879,95.438,540.775,538.714,0.0
53577.0,STARLINK-4553,PAYLOAD,2023-10-25 10:26:08,15.08846358,0.0001584,53.2175,342.6464,92.6545,267.4629,0.0001933,2.79e-05,0.0,0 STARLINK-4553,1 53577U 22101BC  23298.43482007  .00002790  00000-0  19330-3 0  9992,2 53577  53.2175 342.6464 0001584  92.6545 267.4629 15.08846358 65678,6917.861,95.437,540.822,538.63,0.0
53577.0,STARLINK-4553,PAYLOAD,2023-10-25 19:58:27,15.08847492,0.0001575,53.2173,340.8622,87.769,272.3482,0.000132,1.814e-05,0.0,0 STARLINK-4553,1 53577U 22101BC  23298.83225866  .00001814  00000-0  13200-3 0  9990,2 53577  53.2173 340.8622 0001575  87.7690 272.3482 15.08847492 66558,6917.857,95.437,540.812,538.633,0.0
53577.0,STARLINK-4553,PAYLOAD,2023-10-26 10:16:55,15.0884287,0.0001672,53.2172,338.185,83.552,276.5663,5.819e-05,6.38e-06,0.0,0 STARLINK-4553,1 53577U 22101BC  23299.42842081  .00000638  00000-0  58190-4 0  9991,2 53577  53.2172 338.1850 0001672  83.5520 276.5663 15.08842870 65825,6917.872,95.437,540.893,538.58,0.0
53577.0,STARLINK-4553,PAYLOAD,2023-10-26 19:49:14,15.08845317,0.0001561,53.2174,336.4003,89.4528,270.6643,0.0001174,1.581e-05,0.0,0 STARLINK-4553,1 53577U 22101BC  23299.82586062  .00001581  00000-0  11740-3 0  9996,2 53577  53.2174 336.4003 0001561  89.4528 270.6643 15.08845317 66708,6917.864,95.437,540.809,538.649,0.0
53577.0,STARLINK-4553,PAYLOAD,2023-10-27 11:43:04,15.08856121,0.0001583,53.2159,333.4257,90.7494,269.3679,0.00021861,3.194e-05,0.0,0 STARLINK-4553,1 53577U 22101BC  23300.48825197  .00003194  00000-0  21861-3 0  9993,2 53577  53.2159 333.4257 0001583  90.7494 269.3679 15.08856121 65988,6917.831,95.437,540.791,538.601,0.0
53577.0,STARLINK-4553,PAYLOAD,2023-10-27 19:40:01,15.08840228,0.0001566,53.2165,331.9382,95.4153,264.7018,8.8845e-06,-1.47e-06,0.0,0 STARLINK-4553,1 53577U 22101BC  23300.81945784 -.00000147  00000-0  88845-5 0  9998,2 53577  53.2165 331.9382 0001566  95.4153 264.7018 15.08840228 66036,6917.88,95.438,540.828,538.661,0.0
53577.0,STARLINK-4553,PAYLOAD,2023-10-28 08:23:06,15.08835116,0.0001721,53.2154,329.5595,98.047,262.0718,4.3956e-06,-2.18e-06,0.0,0 STARLINK-4553,1 53577U 22101BC  23301.34938260 -.00000218  00000-0  43956-5 0  9991,2 53577  53.2154 329.5595 0001721  98.0470 262.0718 15.08835116 66934,6917.895,95.438,540.951,538.57,0.0
53577.0,STARLINK-4553,PAYLOAD,2023-10-28 19:30:48,15.08835797,0.0001677,53.2152,327.478,100.7992,259.3189,5.7998e-05,6.35e-06,0.0,0 STARLINK-4553,1 53577U 22101BC  23301.81306474  .00000635  00000-0  57998-4 0  9991,2 53577  53.2152 327.4780 0001677 100.7992 259.3189 15.08835797 66188,6917.893,95.438,540.918,538.598,0.0
53577.0,STARLINK-4553,PAYLOAD,2023-10-29 11:24:39,15.08854503,0.0001624,53.2147,324.5036,99.0785,261.0391,0.00056611,8.737e-05,0.0,0 STARLINK-4553,1 53577U 22101BC  23302.47545979  .00008737  00000-0  56611-3 0  9990,2 53577  53.2147 324.5036 0001624  99.0785 261.0391 15.08854503 66288,6917.836,95.437,540.825,538.578,0.0
53577.0,STARLINK-4553,PAYLOAD,2023-10-30 04:53:54,15.08851356,0.0001799,53.2164,321.2299,106.2295,253.8896,0.00032029,4.815e-05,0.0,0 STARLINK-4553,1 53577U 22101BC  23303.20409802  .00004815  00000-0  32029-3 0  9996,2 53577  53.2164 321.2299 0001799 106.2295 253.8896 15.08851356 66396,6917.846,95.437,540.955,538.466,0.0
53577.0,STARLINK-4553,PAYLOAD,2023-10-30 11:15:25,15.08881739,0.0001433,53.215,320.0429,97.2823,262.8332,0.00094397,0.00014784,0.0,0 STARLINK-4553,1 53577U 22101BC  23303.46904730  .00014784  00000-0  94397-3 0  9996,2 53577  53.2150 320.0429 0001433  97.2823 262.8332 15.08881739 66432,6917.753,95.435,540.609,538.626,0.0
53577.0,STARLINK-4553,PAYLOAD,2023-10-30 12:50:48,15.08885571,0.0001451,53.2149,319.7457,95.9464,264.1694,0.00099085,0.00015536,0.0,0 STARLINK-4553,1 53577U 22101BC  23303.53528512  .00015536  00000-0  99085-3 0  9999,2 53577  53.2149 319.7457 0001451  95.9464 264.1694 15.08885571 67268,6917.741,95.435,540.61,538.602,0.0
53577.0,STARLINK-4553,PAYLOAD,2023-10-31 04:44:41,15.08827139,0.0001684,53.2162,316.7705,109.8093,250.3081,-0.00036506,-6.091e-05,0.0,0 STARLINK-4553,1 53577U 22101BC  23304.19770011 -.00006091  00000-0 -36506-3 0  9992,2 53577  53.2162 316.7705 0001684 109.8093 250.3081 15.08827139 66540,6917.92,95.438,540.95,538.62,0.0
53577.0,STARLINK-4553,PAYLOAD,2023-10-31 07:55:27,15.08828176,0.0001514,53.216,316.1778,103.4134,256.7027,-0.00020725,-3.584e-05,0.0,0 STARLINK-4553,1 53577U 22101BC  23304.33018033 -.00003584  00000-0 -20725-3 0  9997,2 53577  53.2160 316.1778 0001514 103.4134 256.7027 15.08828176 67385,6917.917,95.438,540.829,538.734,0.0
53577.0,STARLINK-4553,PAYLOAD,2023-10-31 17:27:46,15.08830164,0.0001533,53.2164,314.3941,103.8259,256.2904,-3.2448e-05,-8.04e-06,0.0,0 STARLINK-4553,1 53577U 22101BC  23304.72762437 -.00000804  00000-0 -32448-4 0  9992,2 53577  53.2164 314.3941 0001533 103.8259 256.2904 15.08830164 67440,6917.91,95.438,540.836,538.715,0.0
53577.0,STARLINK-4553,PAYLOAD,2023-11-01 04:35:29,15.08832408,0.0001511,53.2161,312.3126,104.0747,256.0413,0.00045047,6.887e-05,0.0,0 STARLINK-4553,1 53577U 22101BC  23305.19130978  .00006887  00000-0  45047-3 0  9996,2 53577  53.2161 312.3126 0001511 104.0747 256.0413 15.08832408 66693,6917.904,95.438,540.814,538.723,0.0
53577.0,STARLINK-4553,PAYLOAD,2023-11-01 07:46:15,15.08838451,0.0001576,53.2165,311.7186,105.4291,254.6876,0.00076391,0.0001189,0.0,0 STARLINK-4553,1 53577U 22101BC  23305.32379059  .00011890  00000-0  76391-3 0  9992,2 53577  53.2165 311.7186 0001576 105.4291 254.6876 15.08838451 67531,6917.885,95.438,540.84,538.66,0.0
53577.0,STARLINK-4553,PAYLOAD,2023-11-01 17:18:34,15.08840873,0.0001557,53.2166,309.9347,106.1021,254.0142,0.00052173,8.025e-05,0.0,0 STARLINK-4553,1 53577U 22101BC  23305.72123116  .00008025  00000-0  52173-3 0  9995,2 53577  53.2166 309.9347 0001557 106.1021 254.0142 15.08840873 67595,6917.878,95.437,540.82,538.666,0.0
53577.0,STARLINK-4553,PAYLOAD,2023-11-02 07:37:02,15.08844572,0.0001617,53.2171,307.2579,103.1899,256.9273,0.0003894,5.915e-05,0.0,0 STARLINK-4553,1 53577U 22101BC  23306.31739124  .00005915  00000-0  38940-3 0  9994,2 53577  53.2171 307.2579 0001617 103.1899 256.9273 15.08844572 66861,6917.866,95.437,540.85,538.613,0.0
